{
  "norad_id": 59191,
  "name": "STARLINK-31551",
  "history": [
    {
      "epoch": "2026-03-28T18:29:57.426720",
      "apogee_km": 483.9456069653688,
      "perigee_km": 482.1134010621363,
      "latitude_deg": 42.6311108600688,
      "longitude_deg": 173.09714079997502,
      "semi_major_axis_km": 6861.166504013752,
      "eccentricity": 0.00013352,
      "inclination_deg": 43.0041,
      "raan_deg": 341.0045,
      "arg_perigee_deg": 272.183,
      "mean_anomaly_deg": 87.8869,
      "mean_motion_rev_day": 15.27586543
    },
    {
      "epoch": "2026-03-29T02:20:43.230912",
      "apogee_km": 483.924517716996,
      "perigee_km": 482.0459424503988,
      "latitude_deg": 16.21084194664758,
      "longitude_deg": -155.51863231998868,
      "semi_major_axis_km": 6861.122230083697,
      "eccentricity": 0.0001369,
      "inclination_deg": 43.004,
      "raan_deg": 339.1582,
      "arg_perigee_deg": 275.0444,
      "mean_anomaly_deg": 85.0252,
      "mean_motion_rev_day": 15.27601329
    }
  ]
}